;Project quran_board_without_walls
;Created by Estlcam version 13 build 13.006
;Machining time about 00:09:21 hours

G21
G90
G94
; G92 X0 Y0 Z0
; M03 S20000
G00 Z5.0000


;No. 1: Tasche 1
G00 X59.1839 Y21.6848
G00 Z0.5000
G01 Z0.0000 F120 S20000
G01 Y28.1787 Z-2 X59.1839
G01 Y21.6848 Z-4.4 X59.1839
G01 Y239.6453 F400 X59.1839
G01 X55.6364 Y239.6453
G01 Y21.6848 X55.6364
G01 Y76.6316 X55.6364
G01 X52.0889 Y76.6316
G01 Y163.8984 X52.0889
G01 X51.8284 Y164.1391
G03 X52.43 Y165.715 I-1.7634 J1.5759
G01 Y239.3069 X52.43
G02 X53.1231 Y240 I0.6460 J0.0470
G01 X61.7069 Y240
G02 X62.4 Y239.3069 I0.0470 J-0.6460
G01 Y22.0231 X62.4
G02 X61.7069 Y21.33 I-0.6460 J-0.0470
G01 X53.1231 Y21.33
G02 X52.43 Y22.0231 I-0.0470 J0.6460
G01 Y74.815 X52.43
G03 X50.065 Y77.18 I-2.3650 J0.0000
G01 X48.8727 Y77.18
G01 Y163.35 X48.8727
G03 X50.4612 Y163.3834 I0.6421 J7.2480
G03 X51.8284 Y164.1391 I-0.3962 J2.3316
G01 X52.0889 Y163.8984
G00 Z5.0000


;No. 2: Tasche 2
; --- Schruppen: X/Y 0.1/0.1 mm, Boden 0.1 mm ---
F1200
G00 X5.22126 Y166.29607 Z5.0000
G00 Z0.5000
G01 Z0.0000 F1200
G01 Y156.57561 Z-2.9 X5.22126
G01 Y166.29607 Z-6.2 X5.22126
G01 Y74.63403 F1200 X5.22126
G01 X8.75268 Y74.63403
G01 Y166.29607 X8.75268
G01 X12.2841 Y166.29607
G01 Y74.63403 X12.2841
G01 X15.81551 Y74.63403
G01 Y166.29607 X15.81551
G01 X19.34693 Y166.29607
G01 Y74.63403 X19.34693
G01 X22.87835 Y74.63403
G01 Y166.29607 X22.87835
G01 X26.40976 Y166.29607
G01 Y74.63393 X26.40976
G01 X29.94118 Y74.63393
G01 Y166.29607 X29.94118
G01 X33.47259 Y166.29607
G01 Y74.63393 X33.47259
G01 X37.00401 Y74.63393
G01 Y166.29607 X37.00401
G01 X40.53543 Y166.29607
G01 Y74.63393 X40.53543
G01 X44.06684 Y74.63393
G01 Y166.29607 X44.06684
G01 Y166.65 X44.06684
G01 X45.93902 Y166.65
G1 X45.99428 Y166.64985
G1 X46.04931 Y166.64489
G1 X46.10371 Y166.63515
G1 X46.15706 Y166.62072
G1 X46.20895 Y166.60169
G1 X46.25901 Y166.57822
G1 X46.30684 Y166.55048
G1 X46.35208 Y166.51869
G1 X46.3944 Y166.48307
G1 X46.43347 Y166.4439
G1 X46.46901 Y166.40148
G1 X46.50073 Y166.35613
G1 X46.5284 Y166.30819
G1 X46.55181 Y166.25801
G1 X46.57079 Y166.20599
G1 X46.58519 Y166.15252
G1 X46.5949 Y166.09799
G1 X46.59986 Y166.04282
G1 X46.60001 Y165.98743
G01 Y74.9716 X46.60001
G1 X46.60165 Y74.91618
G1 X46.59855 Y74.86083
G1 X46.59073 Y74.80594
G1 X46.57824 Y74.75193
G1 X46.56118 Y74.69919
G1 X46.53968 Y74.64811
G1 X46.51389 Y74.59906
G1 X46.484 Y74.55242
G1 X46.45023 Y74.50851
G1 X46.41283 Y74.46766
G1 X46.37207 Y74.43018
G1 X46.32826 Y74.39633
G1 X46.28172 Y74.36638
G1 X46.23279 Y74.34053
G1 X46.18183 Y74.31898
G1 X46.12921 Y74.30189
G1 X46.07532 Y74.28938
G1 X46.02057 Y74.28155
G1 X45.96534 Y74.27845
G1 X45.91005 Y74.28
G01 X2.688 Y74.28
G01 Y166.65 X2.688
G01 X44.06684 Y166.65
G01 Y166.29607 X44.06684
G00 Z5.0000
; --- Schlichten auf ursprüngliches Endmaß ---
F600
G00 X5.1328 Y166.3953 Z5.0000
G00 Z0.5000
G01 Z0.0000 F600
G01 Y156.6538 Z-2.9 X5.1328
G01 Y166.3953 Z-6.3 X5.1328
G01 Y74.5348 F600 X5.1328
G01 X8.6803 Y74.5348
G01 Y166.3953 X8.6803
G01 X12.2278 Y166.3953
G01 Y74.5348 X12.2278
G01 X15.7753 Y74.5348
G01 Y166.3953 X15.7753
G01 X19.3228 Y166.3953
G01 Y74.5348 X19.3228
G01 X22.8703 Y74.5348
G01 Y166.3953 X22.8703
G01 X26.4178 Y166.3953
G01 Y74.5347 X26.4178
G01 X29.9653 Y74.5347
G01 Y166.3953 X29.9653
G01 X33.5128 Y166.3953
G01 Y74.5347 X33.5128
G01 X37.0603 Y74.5347
G01 Y166.3953 X37.0603
G01 X40.6078 Y166.3953
G01 Y74.5347 X40.6078
G01 X44.1553 Y74.5347
G01 Y166.3953 X44.1553
G01 Y166.75 X44.1553
G01 X46.036 Y166.75
G02 X46.7 Y166.086 I0.0260 J-0.6380
G01 Y74.8731 X46.7
G02 X46.0069 Y74.18 I-0.6460 J-0.0470
G01 X2.588 Y74.18
G01 Y166.75 X2.588
G01 X44.1553 Y166.75
G01 Y166.3953 X44.1553
G00 Z5.0000
; ursprünglichen modalen Vorschub für nachfolgende Operationen wiederherstellen
F400


;No. 3: Tasche 3
G00 X55.2881 Y122.013 Z5.0000
G00 Z0.5000
G01 Z0.0000 F120
G01 Y118.117 Z-1.4180 X55.2881
G01 X51.2164 Z-2.9000 Y118.117
G01 X55.2881 Z-4.3820 Y118.117
G01 Y122.013 Z-5.8000 X55.2881
G01 Y118.117 F400 X55.2881
G01 X48.8644 Y118.117
G01 Y122.013 X48.8644
G01 X55.2881 Y122.013
G00 Z5.0000
G00 X54.9333 Y121.6583
G00 Z0.5000
G01 Z0.0000 F120
G01 Y118.4718 Z-1.1598 X54.9333
G01 X50.1521 Z-2.9000 Y118.4718
G01 X54.9333 Z-4.6402 Y118.4718
G01 Y121.6583 Z-5.8000 X54.9333
G01 Y118.4718 F400 X54.9333
G01 X49.2192 Y118.4718
G01 Y121.6583 X49.2192
G01 X54.9333 Y121.6583
G00 Z5.0000
G00 X0 Y0

M05
