;Project quran_board_without_walls
;Created by Estlcam version 13 build 13.006
;Machining time about 00:09:21 hours

G21
G90
G94
; G92 X0 Y0 Z0
; M03 S20000
G00 Z5.0000


;No. 1: Tasche 1
G00 X59.1839 Y21.6848
G00 Z0.5000
G01 Z0.0000 F120 S20000
G01 Y28.1787 Z-2 X59.1839
G01 Y21.6848 Z-4.4 X59.1839
G01 Y239.6453 F400 X59.1839
G01 X55.6364 Y239.6453
G01 Y21.6848 X55.6364
G01 Y76.6316 X55.6364
G01 X52.0889 Y76.6316
G01 Y163.8984 X52.0889
G01 X51.8284 Y164.1391
G03 X52.43 Y165.715 I-1.7634 J1.5759
G01 Y239.3069 X52.43
G02 X53.1231 Y240 I0.6460 J0.0470
G01 X61.7069 Y240
G02 X62.4 Y239.3069 I0.0470 J-0.6460
G01 Y22.0231 X62.4
G02 X61.7069 Y21.33 I-0.6460 J-0.0470
G01 X53.1231 Y21.33
G02 X52.43 Y22.0231 I-0.0470 J0.6460
G01 Y74.815 X52.43
G03 X50.065 Y77.18 I-2.3650 J0.0000
G01 X48.8727 Y77.18
G01 Y163.35 X48.8727
G03 X50.4612 Y163.3834 I0.6421 J7.2480
G03 X51.8284 Y164.1391 I-0.3962 J2.3316
G01 X52.0889 Y163.8984
G00 Z5.0000


;No. 2: Tasche 2
G00 X5.1328 Y166.3953 Z5.0000
G00 Z0.5000
G01 Z0.0000 F120
G01 Y156.6538 Z-2.9 X5.1328
G01 Y166.3953 Z-6.3 X5.1328
G01 Y74.5348 F400 X5.1328
G01 X8.6803 Y74.5348
G01 Y166.3953 X8.6803
G01 X12.2278 Y166.3953
G01 Y74.5348 X12.2278
G01 X15.7753 Y74.5348
G01 Y166.3953 X15.7753
G01 X19.3228 Y166.3953
G01 Y74.5348 X19.3228
G01 X22.8703 Y74.5348
G01 Y166.3953 X22.8703
G01 X26.4178 Y166.3953
G01 Y74.5347 X26.4178
G01 X29.9653 Y74.5347
G01 Y166.3953 X29.9653
G01 X33.5128 Y166.3953
G01 Y74.5347 X33.5128
G01 X37.0603 Y74.5347
G01 Y166.3953 X37.0603
G01 X40.6078 Y166.3953
G01 Y74.5347 X40.6078
G01 X44.1553 Y74.5347
G01 Y166.3953 X44.1553
G01 Y166.75 X44.1553
G01 X46.036 Y166.75
G02 X46.7 Y166.086 I0.0260 J-0.6380
G01 Y74.8731 X46.7
G02 X46.0069 Y74.18 I-0.6460 J-0.0470
G01 X2.588 Y74.18
G01 Y166.75 X2.588
G01 X44.1553 Y166.75
G01 Y166.3953 X44.1553
G00 Z5.0000


;No. 3: Tasche 3
G00 X55.2881 Y122.013 Z5.0000
G00 Z0.5000
G01 Z0.0000 F120
G01 Y118.117 Z-1.4180 X55.2881
G01 X51.2164 Z-2.9000 Y118.117
G01 X55.2881 Z-4.3820 Y118.117
G01 Y122.013 Z-5.8000 X55.2881
G01 Y118.117 F400 X55.2881
G01 X48.8644 Y118.117
G01 Y122.013 X48.8644
G01 X55.2881 Y122.013
G00 Z5.0000
G00 X54.9333 Y121.6583
G00 Z0.5000
G01 Z0.0000 F120
G01 Y118.4718 Z-1.1598 X54.9333
G01 X50.1521 Z-2.9000 Y118.4718
G01 X54.9333 Z-4.6402 Y118.4718
G01 Y121.6583 Z-5.8000 X54.9333
G01 Y118.4718 F400 X54.9333
G01 X49.2192 Y118.4718
G01 Y121.6583 X49.2192
G01 X54.9333 Y121.6583
G00 Z5.0000
G00 X0 Y0

M05
