;Project quran_board_without_walls
;Created by Estlcam version 13 build 13.006
;Machining time about 00:09:21 hours

G21
G90
G94
; G92 X0 Y0 Z0
; M03 S20000
G00 Z5.0000


;No. 1: Tasche 1
G00 X59.1839 Y22.2848
G00 Z0.5000
G01 Z0.0000 F120 S20000
G01 Y28.8787 Z-2.4000 X59.1839
G01 Y22.2848 Z-4.8000 X59.1839
G01 Y240.4453 F400 X59.1839
G01 X55.6364 Y240.4453
G01 Y22.2848 X55.6364
G01 Y77.3316 X55.6364
G01 X52.0889 Y77.3316
G01 Y164.5984 X52.0889
G01 X51.8284 Y164.8391
G03 X52.43 Y166.415 I-1.7634 J1.5759
G01 Y240.1069 X52.43
G02 X53.1231 Y240.8 I0.6460 J0.0470
G01 X61.7069 Y240.8
G02 X62.4 Y240.1069 I0.0470 J-0.6460
G01 Y22.6231 X62.4
G02 X61.7069 Y21.93 I-0.6460 J-0.0470
G01 X53.1231 Y21.93
G02 X52.43 Y22.6231 I-0.0470 J0.6460
G01 Y75.515 X52.43
G03 X50.065 Y77.88 I-2.3650 J0.0000
G01 X48.8727 Y77.88
G01 Y164.05 X48.8727
G03 X50.4612 Y164.0834 I0.6421 J7.2480
G03 X51.8284 Y164.8391 I-0.3962 J2.3316
G01 X52.0889 Y164.5984
G00 Z5.0000


;No. 2: Tasche 2
G00 X4.9328 Y166.3953 Z5.0000
G00 Z0.5000
G01 Z0.0000 F120
G01 Y157.0538 Z-3.4000 X4.9328
G01 Y166.3953 Z-6.8000 X4.9328
G01 Y74.9348 F400 X4.9328
G01 X8.4803 Y74.9348
G01 Y166.3953 X8.4803
G01 X12.0278 Y166.7953
G01 Y74.9348 X12.0278
G01 X15.5753 Y74.9348
G01 Y166.3953 X15.5753
G01 X19.1228 Y166.7953
G01 Y74.9348 X19.1228
G01 X22.6703 Y74.9348
G01 Y166.3953 X22.6703
G01 X26.2178 Y166.7953
G01 Y74.9347 X26.2178
G01 X29.7653 Y74.9347
G01 Y166.3953 X29.7653
G01 X33.3128 Y166.7953
G01 Y74.9347 X33.3128
G01 X36.8603 Y74.9347
G01 Y166.3953 X36.8603
G01 X40.4078 Y166.7953
G01 Y74.9347 X40.4078
G01 X43.9553 Y74.9347
G01 Y166.3953 X43.9553
G01 Y167.15 X43.9553
G01 X45.836 Y167.15
G02 X46.5 Y166.486 I0.0260 J-0.6380
G01 Y75.2731 X46.5
G02 X45.8069 Y74.58 I-0.6460 J-0.0470
G01 X2.388 Y74.18
G01 Y166.75 X2.388
G01 X43.9553 Y167.15
G01 Y166.3953 X43.9553
G00 Z5.0000


;No. 3: Tasche 3
G00 X55.2881 Y122.713 Z5.0000
G00 Z0.5000
G01 Z0.0000 F120
G01 Y118.817 Z-1.4180 X55.2881
G01 X51.2164 Z-2.9000 Y118.817
G01 X55.2881 Z-4.3820 Y118.817
G01 Y122.713 Z-5.8000 X55.2881
G01 Y118.817 F400 X55.2881
G01 X48.8644 Y118.817
G01 Y122.713 X48.8644
G01 X55.2881 Y122.713
G00 Z5.0000
G00 X54.9333 Y122.3583
G00 Z0.5000
G01 Z0.0000 F120
G01 Y119.1718 Z-1.1598 X54.9333
G01 X50.1521 Z-2.9000 Y119.1718
G01 X54.9333 Z-4.6402 Y119.1718
G01 Y122.3583 Z-5.8000 X54.9333
G01 Y119.1718 F400 X54.9333
G01 X49.2192 Y119.1718
G01 Y122.3583 X49.2192
G01 X54.9333 Y122.3583
G00 Z5.0000
G00 X0 Y0

M05
