;Project Skizze48
;Created by Estlcam version 13 build 13.006
;Machining time about 00:14:47 hours

G21
G90
G94
; G92 X0 Y0 Z0
; M03 S16000
G00 Z5.0000


;No. 1: Tasche 1
G00 X48.3663 Y2.7581
G00 Z0.5000
G01 Z0.0000 F250 S16000
G01 Y5.5055 Z-1.0000 X48.3663
G01 Y2.7581 Z-2.0000 X48.3663
G01 Y244.0136 F2200 X48.3663
G01 X51.9138 Y244.0136
G01 Y2.7581 X51.9138
G01 Y2.4033 X51.9138
G01 X44.63 Y2.4033
G01 Y244.3683 X44.63
G01 X55.65 Y244.3683
G01 Y2.4033 X55.65
G01 X51.9138 Y2.4033
G01 Y2.7581 X51.9138
G01 Y5.5055 Z-3.0000 F250 X51.9138
G01 Y2.7581 Z-4.0000 X51.9138
G01 Y244.0136 F2200 X51.9138
G01 X48.3663 Y244.0136
G01 Y2.7581 X48.3663
G01 Y2.4033 X48.3663
G01 X44.63 Y2.4033
G01 Y244.3683 X44.63
G01 X55.65 Y244.3683
G01 Y2.4033 X55.65
G01 X48.3663 Y2.4033
G01 Y2.7581 X48.3663
G01 Y5.5055 Z-5.0000 F250 X48.3663
G01 Y2.7581 Z-6.0000 X48.3663
G01 Y244.0136 F2200 X48.3663
G01 X51.9138 Y244.0136
G01 Y2.7581 X51.9138
G01 Y2.4033 X51.9138
G01 X44.63 Y2.4033
G01 Y244.3683 X44.63
G01 X55.65 Y244.3683
G01 Y2.4033 X55.65
G01 X51.9138 Y2.4033
G01 Y2.7581 X51.9138
G01 Y3.857 Z-6.4000 F250 X51.9138
G01 Y2.7581 Z-6.8000 X51.9138
G01 Y244.0136 F2200 X51.9138
G01 X48.3663 Y244.0136
G01 Y2.7581 X48.3663
G01 Y2.4033 X48.3663
G01 X44.63 Y2.4033
G01 Y244.3683 X44.63
G01 X55.65 Y244.3683
G01 Y2.4033 X55.65
G01 X48.3663 Y2.4033
G01 Y2.7581 X48.3663
G00 Z5.0000


;No. 2: Tasche 2
G00 X5.1688 Y2.7599 Z5.0000
G00 Z0.5000
G01 Z0.0000 F250
G01 Y5.5073 Z-1.0000 X5.1688
G01 Y2.7599 Z-2.0000 X5.1688
G01 Y243.9983 F2200 X5.1688
G01 X8.7163 Y243.9983
G01 Y2.7597 X8.7163
G01 X12.2638 Y2.7595
G01 Y243.9983 X12.2638
G01 X15.8113 Y243.9983
G01 Y2.7593 X15.8113
G01 X19.3588 Y2.7591
G01 Y243.9983 X19.3588
G01 X22.9063 Y243.9983
G01 Y2.7589 X22.9063
G01 X26.4538 Y2.7587
G01 Y243.9983 X26.4538
G01 X30.0013 Y243.9983
G01 Y2.7586 X30.0013
G01 X33.5488 Y2.7584
G01 Y243.9983 X33.5488
G01 X37.0963 Y243.9983
G01 Y2.7582 X37.0963
G01 X37.0962 Y2.4038
G01 X2.365 Y2.41
G01 Y244.3531 X2.365
G01 X39.9 Y244.345
G01 Y2.4033 X39.9
G01 X37.0962 Y2.4038
G01 X37.0963 Y2.7582
G01 Y5.5057 Z-3.0000 F250 X37.0963
G01 Y2.7582 Z-4.0000 X37.0963
G01 Y243.9983 F2200 X37.0963
G01 X33.5488 Y243.9983
G01 Y2.7584 X33.5488
G01 X30.0013 Y2.7586
G01 Y243.9983 X30.0013
G01 X26.4538 Y243.9983
G01 Y2.7587 X26.4538
G01 X22.9063 Y2.7589
G01 Y243.9983 X22.9063
G01 X19.3588 Y243.9983
G01 Y2.7591 X19.3588
G01 X15.8113 Y2.7593
G01 Y243.9983 X15.8113
G01 X12.2638 Y243.9983
G01 Y2.7595 X12.2638
G01 X8.7163 Y2.7597
G01 Y243.9983 X8.7163
G01 X5.1688 Y243.9983
G01 Y2.7599 X5.1688
G01 X5.1687 Y2.4095
G01 X2.365 Y2.41
G01 Y244.3531 X2.365
G01 X39.9 Y244.345
G01 Y2.4033 X39.9
G01 X5.1687 Y2.4095
G01 X5.1688 Y2.7599
G01 Y5.5073 Z-5.0000 F250 X5.1688
G01 Y2.7599 Z-6.0000 X5.1688
G01 Y243.9983 F2200 X5.1688
G01 X8.7163 Y243.9983
G01 Y2.7597 X8.7163
G01 X12.2638 Y2.7595
G01 Y243.9983 X12.2638
G01 X15.8113 Y243.9983
G01 Y2.7593 X15.8113
G01 X19.3588 Y2.7591
G01 Y243.9983 X19.3588
G01 X22.9063 Y243.9983
G01 Y2.7589 X22.9063
G01 X26.4538 Y2.7587
G01 Y243.9983 X26.4538
G01 X30.0013 Y243.9983
G01 Y2.7586 X30.0013
G01 X33.5488 Y2.7584
G01 Y243.9983 X33.5488
G01 X37.0963 Y243.9983
G01 Y2.7582 X37.0963
G01 X37.0962 Y2.4038
G01 X2.365 Y2.41
G01 Y244.3531 X2.365
G01 X39.9 Y244.345
G01 Y2.4033 X39.9
G01 X37.0962 Y2.4038
G01 X37.0963 Y2.7582
G01 Y4.2693 Z-6.5500 F250 X37.0963
G01 Y2.7582 Z-7.1000 X37.0963
G01 Y243.9983 F2200 X37.0963
G01 X33.5488 Y243.9983
G01 Y2.7584 X33.5488
G01 X30.0013 Y2.7586
G01 Y243.9983 X30.0013
G01 X26.4538 Y243.9983
G01 Y2.7587 X26.4538
G01 X22.9063 Y2.7589
G01 Y243.9983 X22.9063
G01 X19.3588 Y243.9983
G01 Y2.7591 X19.3588
G01 X15.8113 Y2.7593
G01 Y243.9983 X15.8113
G01 X12.2638 Y243.9983
G01 Y2.7595 X12.2638
G01 X8.7163 Y2.7597
G01 Y243.9983 X8.7163
G01 X5.1688 Y243.9983
G01 Y2.7599 X5.1688
G01 X5.1687 Y2.4095
G01 X2.365 Y2.41
G01 Y244.3531 X2.365
G01 X39.9 Y244.345
G01 Y2.4033 X39.9
G01 X5.1687 Y2.4095
G01 X5.1688 Y2.7599
G00 Z5.0000


;No. 3: Tasche 3
; --- Schruppen: X/Y 0.2/0.2 mm, Boden 0.2 mm ---
F2200
G00 X2.9758 Y153.615 Z5.0000
G00 Z0.5000
G01 Z0.0000 F2200
G01 X5.63579 Z-1.0000 Y153.615
G01 X2.9758 Z-2.0000 Y153.615
G01 X14.7913 F2200 Y153.615
G01 Y151.48 X14.7913
G01 X2.6323 Y151.48
G01 Y155.75 X2.6323
G01 X14.7913 Y155.75
G01 Y153.615 X14.7913
G01 X14.4479 Y153.615
G01 X11.7879 Z-3.0000 F2200 Y153.615
G01 X14.4479 Z-4.0000 Y153.615
G01 X2.6323 F2200 Y153.615
G01 Y155.75 X2.6323
G01 X14.7913 Y155.75
G01 Y151.48 X14.7913
G01 X2.6323 Y151.48
G01 Y153.615 X2.6323
G01 X2.9758 Y153.615
G01 X5.63579 Z-5.0000 F2200 Y153.615
G01 X2.9758 Z-6.0000 Y153.615
G01 X14.7913 F2200 Y153.615
G01 Y151.48 X14.7913
G01 X2.6323 Y151.48
G01 Y155.75 X2.6323
G01 X14.7913 Y155.75
G01 Y153.615 X14.7913
G01 X14.4479 Y153.615
G01 X11.7879 Z-7.0000 F2200 Y153.615
G01 X14.4479 Z-8.0000 Y153.615
G01 X2.6323 F2200 Y153.615
G01 Y155.75 X2.6323
G01 X14.7913 Y155.75
G01 Y151.48 X14.7913
G01 X2.6323 Y151.48
G01 Y153.615 X2.6323
G01 X2.9758 Y153.615
G01 X3.37477 Z-8.1 F2200 Y153.615
G01 X2.9758 Z-8.1 Y153.615
G01 X14.7913 F2200 Y153.615
G01 Y151.48 X14.7913
G01 X2.6323 Y151.48
G01 Y155.75 X2.6323
G01 X14.7913 Y155.75
G01 Y153.615 X14.7913
G01 X14.4479 Y153.615
G00 Z5.0000
; --- Schlichten auf ursprüngliches Endmaß ---
F600
G00 X2.7871 Y153.615 Z5.0000
G00 Z0.5000
G01 Z0.0000 F600
G01 X5.5346 Z-1.0000 Y153.615
G01 X2.7871 Z-2.0000 Y153.615
G01 X14.9913 F600 Y153.615
G01 Y151.28 X14.9913
G01 X2.4323 Y151.28
G01 Y155.95 X2.4323
G01 X14.9913 Y155.95
G01 Y153.615 X14.9913
G01 X14.6366 Y153.615
G01 X11.8891 Z-3.0000 F600 Y153.615
G01 X14.6366 Z-4.0000 Y153.615
G01 X2.4323 F600 Y153.615
G01 Y155.95 X2.4323
G01 X14.9913 Y155.95
G01 Y151.28 X14.9913
G01 X2.4323 Y151.28
G01 Y153.615 X2.4323
G01 X2.7871 Y153.615
G01 X5.5346 Z-5.0000 F600 Y153.615
G01 X2.7871 Z-6.0000 Y153.615
G01 X14.9913 F600 Y153.615
G01 Y151.28 X14.9913
G01 X2.4323 Y151.28
G01 Y155.95 X2.4323
G01 X14.9913 Y155.95
G01 Y153.615 X14.9913
G01 X14.6366 Y153.615
G01 X11.8891 Z-7.0000 F600 Y153.615
G01 X14.6366 Z-8.0000 Y153.615
G01 X2.4323 F600 Y153.615
G01 Y155.95 X2.4323
G01 X14.9913 Y155.95
G01 Y151.28 X14.9913
G01 X2.4323 Y151.28
G01 Y153.615 X2.4323
G01 X2.7871 Y153.615
G01 X3.1992 Z-8.1500 F600 Y153.615
G01 X2.7871 Z-8.3000 Y153.615
G01 X14.9913 F600 Y153.615
G01 Y151.28 X14.9913
G01 X2.4323 Y151.28
G01 Y155.95 X2.4323
G01 X14.9913 Y155.95
G01 Y153.615 X14.9913
G01 X14.6366 Y153.615
G00 Z5.0000
; ursprünglichen modalen Vorschub für nachfolgende Operationen wiederherstellen
F2200
G00 X0 Y0

M05
