;Project quran_board_without_walls
;Created by Estlcam version 13 build 13.006
;Machining time about 00:09:21 hours

G21
G90
G94
; G92 X0 Y0 Z0
; M03 S20000
G00 Z5.0000


;No. 1: Tasche 1
G00 X59.1839 Y22.2848
G00 Z0.5000
G01 Z0.0000 F120 S20000
G01 Y28.8787 Z-2.4000
G01 Y22.2848 Z-4.8000
G01 Y240.4453 F400
G01 X55.6364
G01 Y22.2848
G01 Y77.3316
G01 X52.0889
G01 Y164.5984
G01 X51.8284 Y164.8391
G03 X52.4300 Y166.4150 I-1.7634 J1.5759
G01 Y240.1069
G02 X53.1231 Y240.8000 I0.6460 J0.0470
G01 X61.7069
G02 X62.4000 Y240.1069 I0.0470 J-0.6460
G01 Y22.6231
G02 X61.7069 Y21.9300 I-0.6460 J-0.0470
G01 X53.1231
G02 X52.4300 Y22.6231 I-0.0470 J0.6460
G01 Y75.5150
G03 X50.0650 Y77.8800 I-2.3650 J0.0000
G01 X48.8727
G01 Y164.0500
G03 X50.4612 Y164.0834 I0.6421 J7.2480
G03 X51.8284 Y164.8391 I-0.3962 J2.3316
G01 X52.0889 Y164.5984
G00 Z5.0000


;No. 2: Tasche 2
G00 X4.9328 Y166.6953 Z5.0000
G00 Z0.5000
G01 Z0.0000 F120
G01 Y157.3538 Z-3.4000
G01 Y166.6953 Z-6.8000
G01 Y75.2348 F400
G01 X8.4803
G01 Y166.6953
G01 X12.0278
G01 Y75.2348
G01 X15.5753
G01 Y166.6953
G01 X19.1228
G01 Y75.2348
G01 X22.6703
G01 Y166.6953
G01 X26.2178
G01 Y75.2347
G01 X29.7653
G01 Y166.6953
G01 X33.3128
G01 Y75.2347
G01 X36.8603
G01 Y166.6953
G01 X40.4078
G01 Y75.2347
G01 X43.9553
G01 Y166.6953
G01 Y167.0500
G01 X45.8360
G02 X46.5000 Y166.3860 I0.0260 J-0.6380
G01 Y75.5731
G02 X45.8069 Y74.8800 I-0.6460 J-0.0470
G01 X2.3880
G01 Y167.0500
G01 X43.9553
G01 Y166.6953
G00 Z5.0000


;No. 3: Tasche 3
G00 X55.2881 Y122.7130 Z5.0000
G00 Z0.5000
G01 Z0.0000 F120
G01 Y118.8170 Z-1.4180
G01 X51.2164 Z-2.9000
G01 X55.2881 Z-4.3820
G01 Y122.7130 Z-5.8000
G01 Y118.8170 F400
G01 X48.8644
G01 Y122.7130
G01 X55.2881
G00 Z5.0000
G00 X54.9333 Y122.3583
G00 Z0.5000
G01 Z0.0000 F120
G01 Y119.1718 Z-1.1598
G01 X50.1521 Z-2.9000
G01 X54.9333 Z-4.6402
G01 Y122.3583 Z-5.8000
G01 Y119.1718 F400
G01 X49.2192
G01 Y122.3583
G01 X54.9333
G00 Z5.0000
G00 X0.0000 Y0.0000

M05
