;Project quran_board_without_walls
;Created by Estlcam version 13 build 13.006
;Machining time about 00:09:21 hours

G21
G90
G94
; G92 X0 Y0 Z0
; M03 S20000
G00 Z5.0000


;No. 1: Tasche 1
; --- Schruppen: X/Y 0.1/0.1 mm, Boden 0.1 mm ---
F1200
G00 X59.13147 Y21.78447
G00 Z0.5000
G01 Z0.0000 F1200 S20000
G01 Y28.27243 Z-2 X59.13147
G01 Y21.78447 Z-4.3 X59.13147
G01 Y239.54563 F1200 X59.13147
G01 X55.63641 Y239.54563
G01 Y21.78447 X55.63641
G01 Y76.68102 X55.63641
G01 X52.14135 Y76.68102
G01 Y163.868 X52.14135
G01 X51.88471 Y164.10848
G1 X51.9758 Y164.2184
G1 X52.06014 Y164.33372
G1 X52.13742 Y164.45403
G1 X52.20736 Y164.57887
G1 X52.26968 Y164.70779
G1 X52.32417 Y164.84031
G1 X52.37062 Y164.97594
G1 X52.40886 Y165.11418
G1 X52.43875 Y165.25452
G1 X52.46018 Y165.39645
G1 X52.47307 Y165.53943
G1 X52.47741 Y165.68294
G01 Y239.20754 X52.47741
G1 X52.47579 Y239.26302
G1 X52.47885 Y239.31845
G1 X52.4866 Y239.3734
G1 X52.49895 Y239.42748
G1 X52.51584 Y239.48029
G1 X52.53712 Y239.53143
G1 X52.56265 Y239.58054
G1 X52.59223 Y239.62724
G1 X52.62565 Y239.67121
G1 X52.66267 Y239.7121
G1 X52.703 Y239.74963
G1 X52.74636 Y239.78352
G1 X52.79242 Y239.81351
G1 X52.84085 Y239.83939
G1 X52.89129 Y239.86097
G1 X52.94336 Y239.87808
G1 X52.99669 Y239.89061
G1 X53.05089 Y239.89845
G1 X53.10554 Y239.90155
G1 X53.16027 Y239.9
G01 X61.61717 Y239.9
G1 X61.67189 Y239.90165
G1 X61.72654 Y239.89854
G1 X61.78073 Y239.89069
G1 X61.83406 Y239.87816
G1 X61.88613 Y239.86104
G1 X61.93657 Y239.83945
G1 X61.98499 Y239.81357
G1 X62.03105 Y239.78357
G1 X62.07441 Y239.74968
G1 X62.11474 Y239.71214
G1 X62.15174 Y239.67124
G1 X62.18516 Y239.62727
G1 X62.21474 Y239.58056
G1 X62.24026 Y239.53145
G1 X62.26153 Y239.4803
G1 X62.27841 Y239.42749
G1 X62.29076 Y239.37341
G1 X62.29849 Y239.31846
G1 X62.30155 Y239.26303
G1 X62.30002 Y239.20754
G01 Y22.12246 X62.30002
G1 X62.30165 Y22.06698
G1 X62.29858 Y22.01155
G1 X62.29084 Y21.9566
G1 X62.27848 Y21.90252
G1 X62.2616 Y21.84971
G1 X62.24032 Y21.79857
G1 X62.21479 Y21.74946
G1 X62.18521 Y21.70276
G1 X62.15178 Y21.65879
G1 X62.11477 Y21.6179
G1 X62.07443 Y21.58037
G1 X62.03108 Y21.54648
G1 X61.98501 Y21.51649
G1 X61.93658 Y21.49061
G1 X61.88615 Y21.46903
G1 X61.83407 Y21.45192
G1 X61.78074 Y21.43939
G1 X61.72655 Y21.43155
G1 X61.67189 Y21.42845
G1 X61.61717 Y21.43
G01 X53.16027 Y21.43
G1 X53.10555 Y21.42835
G1 X53.05089 Y21.43146
G1 X52.9967 Y21.43931
G1 X52.94337 Y21.45184
G1 X52.8913 Y21.46896
G1 X52.84087 Y21.49055
G1 X52.79244 Y21.51643
G1 X52.74638 Y21.54643
G1 X52.70303 Y21.58032
G1 X52.6627 Y21.61786
G1 X52.62569 Y21.65876
G1 X52.59228 Y21.70273
G1 X52.5627 Y21.74944
G1 X52.53718 Y21.79855
G1 X52.5159 Y21.8497
G1 X52.49903 Y21.90251
G1 X52.48668 Y21.95659
G1 X52.47894 Y22.01154
G1 X52.47588 Y22.06697
G1 X52.47741 Y22.12246
G01 Y74.86608 X52.47741
G1 X52.46855 Y75.07202
G1 X52.44201 Y75.27638
G1 X52.39802 Y75.47763
G1 X52.33689 Y75.67422
G1 X52.25911 Y75.86466
G1 X52.16525 Y76.0475
G1 X52.05603 Y76.22135
G1 X51.93229 Y76.38488
G1 X51.79496 Y76.53686
G1 X51.64509 Y76.67612
G1 X51.48383 Y76.8016
G1 X51.31239 Y76.91236
G1 X51.13209 Y77.00754
G1 X50.94429 Y77.08642
G1 X50.75043 Y77.14841
G1 X50.55198 Y77.19302
G1 X50.35045 Y77.21993
G1 X50.14737 Y77.22892
G01 X48.9727 Y77.22892
G01 Y163.32011 X48.9727
G1 X49.103 Y163.30961
G1 X49.23346 Y163.30153
G1 X49.36404 Y163.29586
G1 X49.49471 Y163.29261
G1 X49.62541 Y163.29177
G1 X49.75611 Y163.29335
G1 X49.88675 Y163.29735
G1 X50.01731 Y163.30376
G1 X50.14772 Y163.31258
G1 X50.27796 Y163.32382
G1 X50.40797 Y163.33746
G1 X50.53772 Y163.35348
G1 X50.6659 Y163.37933
G1 X50.79245 Y163.41244
G1 X50.91697 Y163.45269
G1 X51.03907 Y163.49995
G1 X51.15836 Y163.55409
G1 X51.27448 Y163.61492
G1 X51.38705 Y163.68226
G1 X51.49571 Y163.75589
G1 X51.60014 Y163.83558
G1 X51.69999 Y163.92109
G1 X51.79496 Y164.01214
G1 X51.88471 Y164.10848
G01 X52.14135 Y163.868
G00 Z5.0000
; --- Schlichten auf ursprüngliches Endmaß ---
F600
G00 X59.1839 Y21.6848
G00 Z0.5000
G01 Z0.0000 F600 S20000
G01 Y28.1787 Z-2 X59.1839
G01 Y21.6848 Z-4.4 X59.1839
G01 Y239.6453 F600 X59.1839
G01 X55.6364 Y239.6453
G01 Y21.6848 X55.6364
G01 Y76.6316 X55.6364
G01 X52.0889 Y76.6316
G01 Y163.8984 X52.0889
G01 X51.8284 Y164.1391
G03 X52.43 Y165.715 I-1.7634 J1.5759
G01 Y239.3069 X52.43
G02 X53.1231 Y240 I0.6460 J0.0470
G01 X61.7069 Y240
G02 X62.4 Y239.3069 I0.0470 J-0.6460
G01 Y22.0231 X62.4
G02 X61.7069 Y21.33 I-0.6460 J-0.0470
G01 X53.1231 Y21.33
G02 X52.43 Y22.0231 I-0.0470 J0.6460
G01 Y74.815 X52.43
G03 X50.065 Y77.18 I-2.3650 J0.0000
G01 X48.8727 Y77.18
G01 Y163.35 X48.8727
G03 X50.4612 Y163.3834 I0.6421 J7.2480
G03 X51.8284 Y164.1391 I-0.3962 J2.3316
G01 X52.0889 Y163.8984
G00 Z5.0000
; ursprünglichen modalen Vorschub für nachfolgende Operationen wiederherstellen
F400


;No. 2: Tasche 2
; --- Schruppen: X/Y 0.1/0.1 mm, Boden 0.1 mm ---
F1200
G00 X5.22126 Y166.29607 Z5.0000
G00 Z0.5000
G01 Z0.0000 F1200
G01 Y156.57561 Z-2.9 X5.22126
G01 Y166.29607 Z-6.2 X5.22126
G01 Y74.63403 F1200 X5.22126
G01 X8.75268 Y74.63403
G01 Y166.29607 X8.75268
G01 X12.2841 Y166.29607
G01 Y74.63403 X12.2841
G01 X15.81551 Y74.63403
G01 Y166.29607 X15.81551
G01 X19.34693 Y166.29607
G01 Y74.63403 X19.34693
G01 X22.87835 Y74.63403
G01 Y166.29607 X22.87835
G01 X26.40976 Y166.29607
G01 Y74.63393 X26.40976
G01 X29.94118 Y74.63393
G01 Y166.29607 X29.94118
G01 X33.47259 Y166.29607
G01 Y74.63393 X33.47259
G01 X37.00401 Y74.63393
G01 Y166.29607 X37.00401
G01 X40.53543 Y166.29607
G01 Y74.63393 X40.53543
G01 X44.06684 Y74.63393
G01 Y166.29607 X44.06684
G01 Y166.65 X44.06684
G01 X45.93902 Y166.65
G1 X45.99428 Y166.64985
G1 X46.04931 Y166.64489
G1 X46.10371 Y166.63515
G1 X46.15706 Y166.62072
G1 X46.20895 Y166.60169
G1 X46.25901 Y166.57822
G1 X46.30684 Y166.55048
G1 X46.35208 Y166.51869
G1 X46.3944 Y166.48307
G1 X46.43347 Y166.4439
G1 X46.46901 Y166.40148
G1 X46.50073 Y166.35613
G1 X46.5284 Y166.30819
G1 X46.55181 Y166.25801
G1 X46.57079 Y166.20599
G1 X46.58519 Y166.15252
G1 X46.5949 Y166.09799
G1 X46.59986 Y166.04282
G1 X46.60001 Y165.98743
G01 Y74.9716 X46.60001
G1 X46.60165 Y74.91618
G1 X46.59855 Y74.86083
G1 X46.59073 Y74.80594
G1 X46.57824 Y74.75193
G1 X46.56118 Y74.69919
G1 X46.53968 Y74.64811
G1 X46.51389 Y74.59906
G1 X46.484 Y74.55242
G1 X46.45023 Y74.50851
G1 X46.41283 Y74.46766
G1 X46.37207 Y74.43018
G1 X46.32826 Y74.39633
G1 X46.28172 Y74.36638
G1 X46.23279 Y74.34053
G1 X46.18183 Y74.31898
G1 X46.12921 Y74.30189
G1 X46.07532 Y74.28938
G1 X46.02057 Y74.28155
G1 X45.96534 Y74.27845
G1 X45.91005 Y74.28
G01 X2.688 Y74.28
G01 Y166.65 X2.688
G01 X44.06684 Y166.65
G01 Y166.29607 X44.06684
G00 Z5.0000
; --- Schlichten auf ursprüngliches Endmaß ---
F600
G00 X5.1328 Y166.3953 Z5.0000
G00 Z0.5000
G01 Z0.0000 F600
G01 Y156.6538 Z-2.9 X5.1328
G01 Y166.3953 Z-6.3 X5.1328
G01 Y74.5348 F600 X5.1328
G01 X8.6803 Y74.5348
G01 Y166.3953 X8.6803
G01 X12.2278 Y166.3953
G01 Y74.5348 X12.2278
G01 X15.7753 Y74.5348
G01 Y166.3953 X15.7753
G01 X19.3228 Y166.3953
G01 Y74.5348 X19.3228
G01 X22.8703 Y74.5348
G01 Y166.3953 X22.8703
G01 X26.4178 Y166.3953
G01 Y74.5347 X26.4178
G01 X29.9653 Y74.5347
G01 Y166.3953 X29.9653
G01 X33.5128 Y166.3953
G01 Y74.5347 X33.5128
G01 X37.0603 Y74.5347
G01 Y166.3953 X37.0603
G01 X40.6078 Y166.3953
G01 Y74.5347 X40.6078
G01 X44.1553 Y74.5347
G01 Y166.3953 X44.1553
G01 Y166.75 X44.1553
G01 X46.036 Y166.75
G02 X46.7 Y166.086 I0.0260 J-0.6380
G01 Y74.8731 X46.7
G02 X46.0069 Y74.18 I-0.6460 J-0.0470
G01 X2.588 Y74.18
G01 Y166.75 X2.588
G01 X44.1553 Y166.75
G01 Y166.3953 X44.1553
G00 Z5.0000
; ursprünglichen modalen Vorschub für nachfolgende Operationen wiederherstellen
F400


;No. 3: Tasche 3
G00 X55.2881 Y122.013 Z5.0000
G00 Z0.5000
G01 Z0.0000 F120
G01 Y118.117 Z-1.4180 X55.2881
G01 X51.2164 Z-2.9000 Y118.117
G01 X55.2881 Z-4.3820 Y118.117
G01 Y122.013 Z-5.8000 X55.2881
G01 Y118.117 F400 X55.2881
G01 X48.8644 Y118.117
G01 Y122.013 X48.8644
G01 X55.2881 Y122.013
G00 Z5.0000
G00 X54.9333 Y121.6583
G00 Z0.5000
G01 Z0.0000 F120
G01 Y118.4718 Z-1.1598 X54.9333
G01 X50.1521 Z-2.9000 Y118.4718
G01 X54.9333 Z-4.6402 Y118.4718
G01 Y121.6583 Z-5.8000 X54.9333
G01 Y118.4718 F400 X54.9333
G01 X49.2192 Y118.4718
G01 Y121.6583 X49.2192
G01 X54.9333 Y121.6583
G00 Z5.0000
G00 X0 Y0

M05
